NORAD_CAT_ID,OBJECT_NAME,OBJECT_TYPE,EPOCH,MEAN_MOTION,ECCENTRICITY,INCLINATION,RA_OF_ASC_NODE,ARG_OF_PERICENTER,MEAN_ANOMALY,BSTAR,MEAN_MOTION_DOT,MEAN_MOTION_DDOT,TLE_LINE0,TLE_LINE1,TLE_LINE2,SEMIMAJOR_AXIS,PERIOD,APOGEE,PERIGEE,DECAYED
53293.0,STARLINK-4148,PAYLOAD,2022-12-07 12:55:25,15.08833601,0.0001530999999999,53.219,107.938,74.2873,285.8288,-9.7897e-06,-4.44e-06,0.0,0 STARLINK-4148,1 53293U 22086BD  22341.53848522 -.00000444  00000-0 -97897-5 0  9998,2 53293  53.2190 107.9380 0001531  74.2873 285.8288 15.08833601 21956,6917.9,95.438,540.8240000000002,538.706,0.0
53293.0,STARLINK-4148,PAYLOAD,2022-12-07 16:06:11,15.08838226,0.0001486,53.2179,107.3421,67.6437,292.4712,-3.6609e-07,-2.94e-06,0.0,0 STARLINK-4148,1 53293U 22086BD  22341.67096233 -.00000294  00000-0 -36609-6 0  9995,2 53293  53.2179 107.3421 0001486  67.6437 292.4712 15.08838226 21813,6917.886,95.438,540.779,538.7230000000002,0.0
53293.0,STARLINK-4148,PAYLOAD,2022-12-08 09:35:24,15.08847695,0.0001466,53.2175,104.0709,66.5089,293.6057,7.1827e-05,8.56e-06,0.0,0 STARLINK-4148,1 53293U 22086BD  22342.39959151  .00000856  00000-0  71827-4 0  9993,2 53293  53.2175 104.0709 0001466  66.5089 293.6057 15.08847695 22086,6917.857,95.437,540.736,538.7080000000002,0.0
53293.0,STARLINK-4148,PAYLOAD,2022-12-08 14:21:34,15.08847023,0.0001435,53.2174,103.179,67.2967,292.8176,4.416100000000001e-05,4.15e-06,0.0,0 STARLINK-4148,1 53293U 22086BD  22342.59831175  .00000415  00000-0  44161-4 0  9992,2 53293  53.2174 103.1790 0001435  67.2967 292.8176 15.08847023 22116,6917.859,95.437,540.717,538.731,0.0
53293.0,STARLINK-4148,PAYLOAD,2022-12-09 07:50:48,15.08835344,0.0001633,53.2183,99.9112,43.9908,316.1214,0.00015529,2.184e-05,0.0,0 STARLINK-4148,1 53293U 22086BD  22343.32695191  .00002184  00000-0  15529-3 0  9990,2 53293  53.2183  99.9112 0001633  43.9908 316.1214 15.08835344 22220,6917.895,95.438,540.889,538.63,0.0
53293.0,STARLINK-4148,PAYLOAD,2022-12-09 18:58:32,15.08812511,0.0002204,53.218,97.8301,37.011,323.1034,-3.7006e-05,-8.77e-06,0.0,0 STARLINK-4148,1 53293U 22086BD  22343.79065858 -.00000877  00000-0 -37006-4 0  9996,2 53293  53.2180  97.8301 0002204  37.0110 323.1034 15.08812511 22137,6917.964,95.439,541.354,538.305,0.0
53293.0,STARLINK-4148,PAYLOAD,2022-12-10 14:03:09,15.08833514,0.0001424,53.2193,94.2604,68.0096,292.1047,-8.9164e-05,-1.706e-05,0.0,0 STARLINK-4148,1 53293U 22086BD  22344.58552744 -.00001706  00000-0 -89164-4 0  9993,2 53293  53.2193  94.2604 0001424  68.0096 292.1047 15.08833514 22414,6917.9,95.438,540.75,538.78,0.0
53293.0,STARLINK-4148,PAYLOAD,2022-12-10 18:49:18,15.08840092,0.0001776999999999,53.219,93.3676,49.0391,311.0754,-3.2881e-05,-8.11e-06,0.0,0 STARLINK-4148,1 53293U 22086BD  22344.78424319 -.00000811  00000-0 -32881-4 0  9991,2 53293  53.2190  93.3676 0001777  49.0391 311.0754 15.08840092 22446,6917.88,95.438,540.974,538.516,0.0
53293.0,STARLINK-4148,PAYLOAD,2022-12-11 12:18:32,15.08837487,0.0001121,53.2176,90.0964,31.278,328.8279,6.9847e-05,8.24e-06,0.0,0 STARLINK-4148,1 53293U 22086BD  22345.51287775  .00000824  00000-0  69847-4 0  9990,2 53293  53.2176  90.0964 0001121  31.2780 328.8279 15.08837487 22556,6917.888000000001,95.438,540.529,538.9780000000002,0.0
53293.0,STARLINK-4148,PAYLOAD,2022-12-11 17:04:42,15.08833222,0.000162,53.2175,89.2039,52.7075,307.4065,0.00016526,2.343e-05,0.0,0 STARLINK-4148,1 53293U 22086BD  22345.71159982  .00002343  00000-0  16526-3 0  9993,2 53293  53.2175  89.2039 0001620  52.7075 307.4065 15.08833222 22589,6917.901,95.438,540.887,538.645,0.0
53293.0,STARLINK-4148,PAYLOAD,2022-12-12 12:09:20,15.08835201,0.0001518,53.2179,85.6334,61.3735,298.741,1.601e-05,-3.3e-07,0.0,0 STARLINK-4148,1 53293U 22086BD  22346.50648831 -.00000033  00000-0  16010-4 0  9991,2 53293  53.2179  85.6334 0001518  61.3735 298.7410 15.08835201 22547,6917.895,95.438,540.81,538.71,0.0
53293.0,STARLINK-4148,PAYLOAD,2022-12-13 13:35:31,15.08837057,0.0001651,53.2167,80.8753,53.5025,306.6119,-7.3197e-05,-1.453e-05,0.0,0 STARLINK-4148,1 53293U 22086BD  22347.56633231 -.00001453  00000-0 -73197-4 0  9993,2 53293  53.2167  80.8753 0001651  53.5025 306.6119 15.08837057 22860,6917.889,95.438,540.8969999999998,538.612,0.0
53293.0,STARLINK-4148,PAYLOAD,2022-12-14 10:15:31,15.088389499999998,0.00017,53.2175,77.0096,52.3772,307.7375,4.789e-05,4.74e-06,0.0,0 STARLINK-4148,1 53293U 22086BD  22348.42744796  .00000474  00000-0  47890-4 0  9999,2 53293  53.2175  77.0096 0001700  52.3772 307.7375 15.08838950 22991,6917.884,95.438,540.925,538.573,0.0
53293.0,STARLINK-4148,PAYLOAD,2022-12-14 13:26:17,15.08839697,0.0001754999999999,53.2169,76.4148,57.3368,302.7794,5.7399e-05,6.26e-06,0.0,0 STARLINK-4148,1 53293U 22086BD  22348.55992700  .00000626  00000-0  57399-4 0  9997,2 53293  53.2169  76.4148 0001755  57.3368 302.7794 15.08839697 22855,6917.880999999999,95.438,540.96,538.5319999999998,0.0
53293.0,STARLINK-4148,PAYLOAD,2022-12-15 06:55:32,15.08832429,0.0001582,53.2153,73.1438,47.6186,312.494,3.3752e-05,2.49e-06,0.0,0 STARLINK-4148,1 53293U 22086BD  22349.28857326  .00000249  00000-0  33752-4 0  9990,2 53293  53.2153  73.1438 0001582  47.6186 312.4940 15.08832429 22961,6917.904,95.438,540.863,538.674,0.0
53293.0,STARLINK-4148,PAYLOAD,2022-12-15 13:17:05,15.08833207,0.0001726,53.218,71.9568,54.4427,305.6726,7.6375e-05,9.27e-06,0.0,0 STARLINK-4148,1 53293U 22086BD  22349.55353238  .00000927  00000-0  76375-4 0  9994,2 53293  53.2180  71.9568 0001726  54.4427 305.6726 15.08833207 23169,6917.901,95.438,540.96,538.572,0.0
53293.0,STARLINK-4148,PAYLOAD,2022-12-15 14:52:28,15.08834865,0.0001705,53.2179,71.6586,56.2693,303.8462,7.5172e-05,9.08e-06,0.0,0 STARLINK-4148,1 53293U 22086BD  22349.61977130  .00000908  00000-0  75172-4 0  9997,2 53293  53.2179  71.6586 0001705  56.2693 303.8462 15.08834865 23175,6917.896,95.438,540.941,538.582,0.0
53293.0,STARLINK-4148,PAYLOAD,2022-12-15 22:49:23,15.08843074,0.0001625,53.2178,70.1721,43.4958,316.6162,2.7479e-05,1.49e-06,0.0,0 STARLINK-4148,1 53293U 22086BD  22349.95096820  .00000149  00000-0  27479-4 0  9996,2 53293  53.2178  70.1721 0001625  43.4958 316.6162 15.08843074 23061,6917.871,95.437,540.86,538.612,0.0
53293.0,STARLINK-4148,PAYLOAD,2022-12-16 13:07:52,15.08838983,0.0001607,53.2188,67.4969,46.7739,313.3388,-2.2556e-07,-2.92e-06,0.0,0 STARLINK-4148,1 53293U 22086BD  22350.54713069 -.00000292  00000-0 -22556-6 0  9998,2 53293  53.2188  67.4969 0001607  46.7739 313.3388 15.08838983 23313,6917.8830000000025,95.438,540.86,538.637,0.0
53293.0,STARLINK-4148,PAYLOAD,2022-12-16 17:54:01,15.08841049,0.0001460999999999,53.2179,66.604,50.0113,310.1007,-3.4763e-05,-8.41e-06,0.0,0 STARLINK-4148,1 53293U 22086BD  22350.74584983 -.00000841  00000-0 -34763-4 0  9992,2 53293  53.2179  66.6040 0001461  50.0113 310.1007 15.08841049 23349,6917.877,95.437,540.753,538.731,0.0
53293.0,STARLINK-4148,PAYLOAD,2022-12-17 11:23:16,15.08835105,0.0001746,53.2175,63.3344,45.7609,314.3527,-4.551600000000001e-07,-2.95e-06,0.0,0 STARLINK-4148,1 53293U 22086BD  22351.47449448 -.00000295  00000-0 -45516-6 0  9992,2 53293  53.2175  63.3344 0001746  45.7609 314.3527 15.08835105 23454,6917.895,95.438,540.9680000000002,538.552,0.0
53293.0,STARLINK-4148,PAYLOAD,2022-12-17 14:34:02,15.08830671,0.0001715,53.2185,62.7394,51.9858,308.1289,-4.5937e-05,-1.019e-05,0.0,0 STARLINK-4148,1 53293U 22086BD  22351.60697901 -.00001019  00000-0 -45937-4 0  9996,2 53293  53.2185  62.7394 0001715  51.9858 308.1289 15.08830671 23475,6917.909000000002,95.438,540.96,538.587,0.0
53293.0,STARLINK-4148,PAYLOAD,2022-12-18 11:14:04,15.08829651,0.0001702,53.2181,58.8725,48.3506,311.7632,-7.2993e-05,-1.449e-05,0.0,0 STARLINK-4148,1 53293U 22086BD  22352.46810342 -.00001449  00000-0 -72993-4 0  9996,2 53293  53.2181  58.8725 0001702  48.3506 311.7632 15.08829651 23446,6917.9119999999975,95.438,540.9540000000002,538.6,0.0
53293.0,STARLINK-4148,PAYLOAD,2022-12-18 14:24:50,15.08831586,0.0001688,53.2181,58.2778,45.5751,314.5379,-4.9818e-05,-1.081e-05,0.0,0 STARLINK-4148,1 53293U 22086BD  22352.60058195 -.00001081  00000-0 -49818-4 0  9994,2 53293  53.2181  58.2778 0001688  45.5751 314.5379 15.08831586 23621,6917.906,95.438,540.939,538.6030000000002,0.0
53293.0,STARLINK-4148,PAYLOAD,2022-12-19 11:04:50,15.08840299,0.0001786999999999,53.2182,54.4117,56.9885,303.1279,3.1023000000000004e-05,2.06e-06,0.0,0 STARLINK-4148,1 53293U 22086BD  22353.46169601  .00000206  00000-0  31023-4 0  9999,2 53293  53.2182  54.4117 0001787  56.9885 303.1279 15.08840299 23591,6917.879,95.438,540.981,538.508,0.0
53293.0,STARLINK-4148,PAYLOAD,2022-12-19 20:37:08,15.08846199,0.0001781999999999,53.2184,52.6282,45.524,314.5897,0.00017801,2.547e-05,0.0,0 STARLINK-4148,1 53293U 22086BD  22353.85912655  .00002547  00000-0  17801-3 0  9994,2 53293  53.2184  52.6282 0001782  45.5240 314.5897 15.08846199 23812,6917.861,95.437,540.9590000000002,538.494,0.0
53293.0,STARLINK-4148,PAYLOAD,2022-12-20 12:30:59,15.08842567,0.0001742,53.2179,49.6549,44.058,316.0551,0.0001323,1.818e-05,0.0,0 STARLINK-4148,1 53293U 22086BD  22354.52152630  .00001818  00000-0  13230-3 0  9990,2 53293  53.2179  49.6549 0001742  44.0580 316.0551 15.08842567 23915,6917.873000000001,95.437,540.943,538.5319999999998,0.0
53293.0,STARLINK-4148,PAYLOAD,2022-12-21 04:24:52,15.08839851,0.0001779,53.2181,46.6815,46.6053,313.5087,-7.8397e-05,-1.536e-05,0.0,0 STARLINK-4148,1 53293U 22086BD  22355.18393590 -.00001536  00000-0 -78397-4 0  9990,2 53293  53.2181  46.6815 0001779  46.6053 313.5087 15.08839851 23855,6917.880999999999,95.438,540.977,538.515,0.0
53293.0,STARLINK-4148,PAYLOAD,2022-12-21 12:21:49,15.08820932,0.0001758,53.2183,45.1948,46.2436,313.8702,-0.0002247,-3.861e-05,0.0,0 STARLINK-4148,1 53293U 22086BD  22355.51515381 -.00003861  00000-0 -22470-3 0  9994,2 53293  53.2183  45.1948 0001758  46.2436 313.8702 15.08820932 23909,6917.939,95.439,541.02,538.587,0.0
